NORAD_CAT_ID,OBJECT_NAME,OBJECT_TYPE,EPOCH,MEAN_MOTION,ECCENTRICITY,INCLINATION,RA_OF_ASC_NODE,ARG_OF_PERICENTER,MEAN_ANOMALY,BSTAR,MEAN_MOTION_DOT,MEAN_MOTION_DDOT,TLE_LINE0,TLE_LINE1,TLE_LINE2,SEMIMAJOR_AXIS,PERIOD,APOGEE,PERIGEE,DECAYED
56448.0,STARLINK-5990,PAYLOAD,2024-04-30 04:53:19,14.98330647,0.0002984,70.0006,55.2346,266.8806,93.2012,0.00019864,2.278e-05,0.0,0 STARLINK-5990,1 56448U 23064A   24121.20369623  .00002278  00000-0  19864-3 0  9993,2 56448  70.0006  55.2346 0002984 266.8806  93.2012 14.98330647 53972,6950.191,96.107,574.13,569.982,0.0
56448.0,STARLINK-5990,PAYLOAD,2024-04-30 12:53:59,14.98344296,0.0003054,70.0006,54.3924,270.9263,89.1546,-7.4805e-05,-9.86e-06,0.0,0 STARLINK-5990,1 56448U 23064A   24121.53749055 -.00000986  00000-0 -74805-4 0  9993,2 56448  70.0006  54.3924 0003054 270.9263  89.1546 14.98344296 53663,6950.149,96.106,574.136,569.891,0.0
56448.0,STARLINK-5990,PAYLOAD,2024-04-30 22:30:48,14.98331131,0.0002931,70.0007,53.3826,268.8845,91.1979,0.00012098,1.351e-05,0.0,0 STARLINK-5990,1 56448U 23064A   24121.93805779  .00001351  00000-0  12098-3 0  9993,2 56448  70.0007  53.3826 0002931 268.8845  91.1979 14.98331131 53723,6950.189,96.107,574.091,570.017,0.0
56448.0,STARLINK-5990,PAYLOAD,2024-05-01 04:55:20,14.98334573,0.0002913,70.0008,52.7093,268.3533,91.7292,0.00017971,2.052e-05,0.0,0 STARLINK-5990,1 56448U 23064A   24122.20509426  .00002052  00000-0  17971-3 0  9998,2 56448  70.0008  52.7093 0002913 268.3533  91.7292 14.98334573 54124,6950.179,96.107,574.068,570.019,0.0
56448.0,STARLINK-5990,PAYLOAD,2024-05-01 12:56:00,14.98335297,0.000295,70.0008,51.867,267.3301,92.7521,7.6007e-05,8.14e-06,0.0,0 STARLINK-5990,1 56448U 23064A   24122.53889360  .00000814  00000-0  76007-4 0  9992,2 56448  70.0008  51.8670 0002950 267.3301  92.7521 14.98335297 53813,6950.177,96.107,574.092,569.991,0.0
56448.0,STARLINK-5990,PAYLOAD,2024-05-01 19:20:32,14.98333516,0.0002911,70.0006,51.1941,269.0247,91.0579,7.9585e-05,8.57e-06,0.0,0 STARLINK-5990,1 56448U 23064A   24122.80593429  .00000857  00000-0  79585-4 0  9991,2 56448  70.0006  51.1941 0002911 269.0247  91.0579 14.98333516 53851,6950.182,96.107,574.07,570.024,0.0
56448.0,STARLINK-5990,PAYLOAD,2024-05-02 04:57:20,14.98335326,0.0002892,70.0008,50.1845,269.7698,90.313,9.2393e-05,1.01e-05,0.0,0 STARLINK-5990,1 56448U 23064A   24123.20649183  .00001010  00000-0  92393-4 0  9999,2 56448  70.0008  50.1845 0002892 269.7698  90.3130 14.98335326 54273,6950.176,96.107,574.051,570.031,0.0
56448.0,STARLINK-5990,PAYLOAD,2024-05-02 12:58:01,14.9833236,0.0002862,70.0009,49.3427,269.9737,90.1094,2.718e-05,2.31e-06,0.0,0 STARLINK-5990,1 56448U 23064A   24123.54029396  .00000231  00000-0  27180-4 0  9990,2 56448  70.0009  49.3427 0002862 269.9737  90.1094 14.98332360 53960,6950.186,96.107,574.04,570.061,0.0
56448.0,STARLINK-5990,PAYLOAD,2024-05-03 04:59:21,14.98342173,0.0002892,70.0007,47.6599,270.7188,89.3639,0.00011953,1.334e-05,0.0,0 STARLINK-5990,1 56448U 23064A   24124.20788343  .00001334  00000-0  11953-3 0  9993,2 56448  70.0007  47.6599 0002892 270.7188  89.3639 14.98342173 54422,6950.155,96.106,574.03,570.01,0.0
56448.0,STARLINK-5990,PAYLOAD,2024-05-03 21:00:42,14.98329018,0.0002634,70.0012,45.9766,273.4093,86.6765,-2.3675e-05,-3.75e-06,0.0,0 STARLINK-5990,1 56448U 23064A   24124.87549411 -.00000375  00000-0 -23675-4 0  9998,2 56448  70.0012  45.9766 0002634 273.4093  86.6765 14.98329018 54528,6950.196,96.107,573.892,570.23,0.0
56448.0,STARLINK-5990,PAYLOAD,2024-05-03 22:36:50,14.98327583,0.0002715,70.0012,45.8083,272.8302,87.2547,-5.2697e-06,-1.56e-06,0.0,0 STARLINK-5990,1 56448U 23064A   24124.94225444 -.00000156  00000-0 -52697-5 0  9997,2 56448  70.0012  45.8083 0002715 272.8302  87.2547 14.98327583 54176,6950.2,96.107,573.952,570.178,0.0
56448.0,STARLINK-5990,PAYLOAD,2024-05-04 21:02:43,14.98324523,0.0002668,70.0011,43.4524,271.9179,88.1675,0.00015966,1.812e-05,0.0,0 STARLINK-5990,1 56448U 23064A   24125.87689326  .00001812  00000-0  15966-3 0  9997,2 56448  70.0011  43.4524 0002668 271.9179  88.1675 14.98324523 54676,6950.21,96.107,573.929,570.221,0.0
56448.0,STARLINK-5990,PAYLOAD,2024-05-05 03:27:15,14.98331768,0.0002618,70.0015,42.7792,266.8638,93.2222,6.0126e-05,6.25e-06,0.0,0 STARLINK-5990,1 56448U 23064A   24126.14393011  .00000625  00000-0  60126-4 0  9991,2 56448  70.0015  42.7792 0002618 266.8638  93.2222 14.98331768 54356,6950.187,96.107,573.872,570.233,0.0
56448.0,STARLINK-5990,PAYLOAD,2024-05-05 21:04:44,14.98330003,0.0002784,70.001,40.9276,266.9926,93.0914,9.9914e-05,1.099e-05,0.0,0 STARLINK-5990,1 56448U 23064A   24126.87828915  .00001099  00000-0  99914-4 0  9990,2 56448  70.0010  40.9276 0002784 266.9926  93.0914 14.98330003 54822,6950.193,96.107,573.993,570.123,0.0
56448.0,STARLINK-5990,PAYLOAD,2024-05-05 22:40:52,14.98330381,0.000278,70.001,40.7593,267.0341,93.05,0.00010304,1.137e-05,0.0,0 STARLINK-5990,1 56448U 23064A   24126.94504889  .00001137  00000-0  10304-3 0  9997,2 56448  70.0010  40.7593 0002780 267.0341  93.0500 14.98330381 54472,6950.192,96.107,573.989,570.125,0.0
56448.0,STARLINK-5990,PAYLOAD,2024-05-06 11:29:56,14.98332258,0.0002728,70.0011,39.4126,269.3078,90.7769,9.4411e-05,1.034e-05,0.0,0 STARLINK-5990,1 56448U 23064A   24127.47912821  .00001034  00000-0  94411-4 0  9993,2 56448  70.0011  39.4126 0002728 269.3078  90.7769 14.98332258 54559,6950.186,96.107,573.947,570.155,0.0
56448.0,STARLINK-5990,PAYLOAD,2024-05-06 21:06:44,14.98336838,0.0002775,70.0009,38.4019,268.0183,92.0658,8.4252e-05,9.13e-06,0.0,0 STARLINK-5990,1 56448U 23064A   24127.87968385  .00000913  00000-0  84252-4 0  9990,2 56448  70.0009  38.4019 0002775 268.0183  92.0658 14.98336838 54977,6950.172,96.107,573.965,570.108,0.0
56448.0,STARLINK-5990,PAYLOAD,2024-05-06 22:42:52,14.98336574,0.0002785,70.0009,38.2335,267.9243,92.1597,7.8982e-05,8.5e-06,0.0,0 STARLINK-5990,1 56448U 23064A   24127.94644390  .00000850  00000-0  78982-4 0  9998,2 56448  70.0009  38.2335 0002785 267.9243  92.1597 14.98336574 54624,6950.173,96.107,573.973,570.102,0.0
56448.0,STARLINK-5990,PAYLOAD,2024-05-07 11:31:57,14.98331971,0.0002427,70.0017,36.8886,276.9648,83.1235,1.4771e-05,8.3e-07,0.0,0 STARLINK-5990,1 56448U 23064A   24128.48052880  .00000083  00000-0  14771-4 0  9999,2 56448  70.0017  36.8886 0002427 276.9648  83.1235 14.98331971 55064,6950.187,96.107,573.739,570.365,0.0
56448.0,STARLINK-5990,PAYLOAD,2024-05-07 21:08:46,14.98321051,0.0002967,70.0006,35.8769,270.9718,89.1101,-0.0001252,-1.586e-05,0.0,0 STARLINK-5990,1 56448U 23064A   24128.88109770 -.00001586  00000-0 -12520-3 0  9994,2 56448  70.0006  35.8769 0002967 270.9718  89.1101 14.98321051 55125,6950.221,96.108,574.148,570.023,0.0
56448.0,STARLINK-5990,PAYLOAD,2024-05-08 03:33:15,14.98366337,0.0002754,70.0008,35.2038,276.9497,83.1349,0.00037804,4.425e-05,0.0,0 STARLINK-5990,1 56448U 23064A   24129.14809658  .00004425  00000-0  37804-3 0  9991,2 56448  70.0008  35.2038 0002754 276.9497  83.1349 14.98366337 55162,6950.081,96.105,573.86,570.031,0.0
56448.0,STARLINK-5990,PAYLOAD,2024-05-08 11:33:57,14.98338384,0.0003135,70.0009,34.3625,267.7246,92.3554,6.6349e-05,6.99e-06,0.0,0 STARLINK-5990,1 56448U 23064A   24129.48191648  .00000699  00000-0  66349-4 0  9997,2 56448  70.0009  34.3625 0003135 267.7246  92.3554 14.98338384 55216,6950.167,96.106,574.211,569.853,0.0
56448.0,STARLINK-5990,PAYLOAD,2024-05-08 21:10:47,14.98319999,0.0002828,70.001,33.3527,267.0954,92.9881,-0.00013533,-1.707e-05,0.0,0 STARLINK-5990,1 56448U 23064A   24129.88249413 -.00001707  00000-0 -13533-3 0  9994,2 56448  70.0010  33.3527 0002828 267.0954  92.9881 14.98319999 55271,6950.224,96.108,574.054,570.123,0.0
56448.0,STARLINK-5990,PAYLOAD,2024-05-08 22:46:55,14.98320054,0.0002823,70.0009,33.1843,265.8224,94.2612,-0.00012819,-1.622e-05,0.0,0 STARLINK-5990,1 56448U 23064A   24129.94925430 -.00001622  00000-0 -12819-3 0  9993,2 56448  70.0009  33.1843 0002823 265.8224  94.2612 14.98320054 54921,6950.224,96.108,574.051,570.127,0.0
56448.0,STARLINK-5990,PAYLOAD,2024-05-09 03:35:19,14.98326329,0.0002818,70.0007,32.6804,261.813,98.271,-6.8718e-05,-9.13e-06,0.0,0 STARLINK-5990,1 56448U 23064A   24130.14953011 -.00000913  00000-0 -68718-4 0  9995,2 56448  70.0007  32.6804 0002818 261.8130  98.2710 14.98326329 55314,6950.204,96.107,574.028,570.111,0.0
56448.0,STARLINK-5990,PAYLOAD,2024-05-09 22:48:56,14.9832585,0.0002852,70.0006,30.6594,266.5297,93.5536,0.00018136,2.071e-05,0.0,0 STARLINK-5990,1 56448U 23064A   24130.95064846  .00002071  00000-0  18136-3 0  9996,2 56448  70.0006  30.6594 0002852 266.5297  93.5536 14.98325850 55076,6950.206,96.107,574.053,570.089,0.0
56448.0,STARLINK-5990,PAYLOAD,2024-05-10 03:37:19,14.98332743,0.0002794,70.0007,30.1543,265.6006,94.4834,0.00025828,2.99e-05,0.0,0 STARLINK-5990,1 56448U 23064A   24131.15092432  .00002990  00000-0  25828-3 0  9997,2 56448  70.0007  30.1543 0002794 265.6006  94.4834 14.98332743 55462,6950.184,96.107,573.991,570.108,0.0
56448.0,STARLINK-5990,PAYLOAD,2024-05-10 10:01:51,14.98346435,0.0002609,70.0008,29.4809,266.528,93.5581,-0.00020744,-2.568e-05,0.0,0 STARLINK-5990,1 56448U 23064A   24131.41796204 -.00002568  00000-0 -20744-3 0  9999,2 56448  70.0008  29.4809 0002609 266.5280  93.5581 14.98346435 55145,6950.142,96.106,573.82,570.194,0.0
56448.0,STARLINK-5990,PAYLOAD,2024-05-10 21:14:48,14.98325994,0.0002652,70.0009,28.3027,263.1375,96.9482,0.0002491,2.88e-05,0.0,0 STARLINK-5990,1 56448U 23064A   24131.88528908  .00002880  00000-0  24910-3 0  9998,2 56448  70.0009  28.3027 0002652 263.1375  96.9482 14.98325994 55573,6950.205,96.107,573.913,570.227,0.0
56448.0,STARLINK-5990,PAYLOAD,2024-05-11 02:03:12,14.98348993,0.0002202,70.0017,27.7972,261.9138,98.1771,0.00058754,6.928e-05,0.0,0 STARLINK-5990,1 56448U 23064A   24132.08556005  .00006928  00000-0  58754-3 0  9990,2 56448  70.0017  27.7972 0002202 261.9138  98.1771 14.98348993 55601,6950.134,96.106,573.53,570.469,0.0
